NUSAT-48 (HENRIETTA LE*)
1 60498U 24149AG  26068.80506098  .00012988  00000+0  45212-3 0  9999
2 60498  97.3923 150.8264 0002754 263.3026  96.7901 15.29812597 86946
STARLINK-34896          
1 66288U 25247Z   26068.61256847  .00027604  00000+0  94151-3 0  9992
2 66288  53.1588 191.6684 0001243  79.1910 280.9231 15.30171297 21020
